#dP2021 11 14  0  0  0.00000000      96 __u+U ITR00 FIT  IAC
## 2184      0.00000000   900.00000000 59532 0.0000000000000
+  114   C06C07C08C09C10C11C12C13C14C16C19C20C21C22C23C24C25
+        C26C27C28C29C30C32C33C34C35C36C37C38C39C40C41C42C43
+        C44C45C46E01E02E03E04E05E07E08E09E11E12E13E14E15E18
+        E19E21E24E25E26E27E30E31E33E36G01G02G03G04G05G06G07
+        G08G09G10G11G12G13G14G15G16G17G18G19G20G21G22G23G24
+        G25G26G27G28G29G30G31G32R01R02R03R04R05R07R08R09R11
+        R12R13R14R15R16R17R18R19R20R21R22R24  0  0  0  0  0
++         8  7  7  7  8  8  6  8  7  7  5  8  8  6  9  7  8
++         7  6  6  7  7  7  7  6  7  5  7  7  8  9  6  7  8
++         8  6  7  7  5  6  6  6  8  6  6  6  6  6  7  7  7
++         7  7  6  5  7  8  6  6  6  8  6  7  7  6  7  6  6
++         5  7  6  9  6  6  5  8  6  6  7  7  6  5  7  7  6
++         7  6  5  6  6  6  6  6  6  6  7  8  6  7  7  6  8
++         6  6  8  5  6  6  7  7  7  6  6  6  0  0  0  0  0
%c M  cc GPS ccc cccc cccc cccc cccc ccccc ccccc ccccc ccccc
%c cc cc ccc ccc cccc cccc cccc cccc ccccc ccccc ccccc ccccc
%f  0.0000000  0.000000000  0.00000000000  0.000000000000000
%f  0.0000000  0.000000000  0.00000000000  0.000000000000000
%i    0    0    0    0      0      0      0      0         0
%i    0    0    0    0      0      0      0      0         0
/* INFORMATION & ANALYSIS CENTER (IAC)      ULTRA-RAPID DATA
/* S/V CLOCKS ARE ALIGNED TO GNSS TIME                      
/* G:C1WC2W R:C1PC2P E:C1XC5X C:C2IC6I J:C1CC2S             
/* PCV:IGS14_2163 OL/AL:FES2004  NONE     YN ORB:CoN CLK:CoN
*  2021 11 14 12  0  0.00000000
PC06 -16128.987760  37309.095485  10846.428685    486.119308
PC07  -2922.040201  34088.252434  24732.123273    238.987240
PC08 -10627.879789  20042.664580 -35560.797117   -771.105880
PC09 -10800.309552  36256.025622  18431.014133   -266.118856
PC10   4551.027238  37479.971044  19492.439610     12.224784
PC11 -11227.711213 -10541.200346  23339.403493    689.976244
PC12   3901.138713 -22761.028014  15690.301548    724.399844
PC13  -3931.065018  22250.715416 -35496.634673    474.814015
PC14 -16697.788282 -20119.972647  -9670.269721    536.246771
PC16 -19292.559833  36809.446120   6456.184041   -722.885294
PC19  18551.930743  11632.674550  17320.594634    935.445463
PC20  13075.445492  24563.524862   2258.167548   -790.624030
PC21    633.874978 -23484.157050  15057.416876   -936.555672
PC22  13500.476165  -8482.894232  22893.269959   -968.560155
PC23 -24257.582936   6394.349206  12240.179649   -965.739343
PC24 -12995.460551 -15281.512662 -19418.637401   -961.588812
PC25 -27080.691658  -5172.617032  -4406.512469   -824.890672
PC26   6342.391420 -15515.749168 -22314.431392    821.939266
PC27 -11212.383199  24342.554563  -7772.189604    629.312031
PC28 -20404.800087  16307.359793   9840.971337     -2.812926
PC29  17615.631272    708.600138 -21634.265180    474.150041
PC30   4665.794876  18392.555979 -20457.894649    486.224247
PC32   -499.165384  23468.074327 -15087.060458   -962.152499
PC33 -18625.770502 -11605.582108 -17235.955739   -972.917359
PC34  -5373.605336 -17813.409047  20797.704789   -537.139480
PC35  19945.833888 -16640.513513 -10240.001392      0.251457
PC36  26795.346172   6098.448022   4854.076114   -803.528151
PC37  -7927.289229  15100.667528  22109.079538   -890.896814
PC38 -20310.432994  20162.271537 -31013.335373    189.415305
PC39 -20744.081058  36607.890944    404.997173     34.002272
PC40  -6519.499892  29765.522238  29213.024520    217.617031
PC41 -13695.068743   8144.342459 -22868.152231   -916.273889
PC42 -12565.853118 -24873.944583  -1322.571681   -943.908015
PC43 -17415.833344  -1485.761795  21746.266277   -960.811228
PC44  10516.834001 -24747.204596   7513.755325    465.465961
PC45  24105.370179  -6481.228407 -12444.348750    600.589447
PC46  14233.235608  14838.918675  18853.323129     -7.843218
PE01 -25400.937239 -14970.681343   2687.702957   -516.878383
PE02  25421.452265  14876.070055  -2819.476923    260.232202
PE03  15073.146272  12122.659738  22397.995892   -495.861818
PE04 -16524.301323  10178.942696 -22352.328795   -899.402920
PE05   4745.130634  27697.830154   9292.449565   -234.042438
PE07   8213.083266 -26953.505486   9054.099549   -606.935742
PE08  16266.954201 -10691.863739  22288.521205   5905.207143
PE09  -7931.474449  27097.067217  -8914.734981   5463.971392
PE11 -16633.331835  19287.000916 -15085.276128   5085.054603
PE12 -27281.464616  10801.982882   3876.383821   4910.483875
PE13  17089.434491 -19214.753294  14662.591025    423.682988
PE14 -16686.907605   6756.017583  17109.495952  -1639.906239
PE15  27248.849125 -10857.520779  -3942.387811    781.014816
PE18  20143.510094   2575.030755 -24180.842596  -1802.488676
PE19 -14074.082081 -14684.191920 -21510.831592    427.330387
PE21 -14271.239484 -21460.264987 -14561.452705   -699.494871
PE24  -6925.618739  15317.726437  24355.346786  -1225.742379
PE25  14039.423374  21472.592418  14767.825164   -553.522412
PE26  -4236.374262 -15924.254944  24594.915797   1113.083632
PE27   5675.620304 -15973.976490 -24257.406989   -164.662448
PE30  22795.731744    -53.955189 -18874.028749    -29.312916
PE31 -22145.289033   1135.875447  19624.591875   -488.056295
PE33 -21316.989975  -3880.451669  20175.262638   -462.563587
PE36   3057.837481  16238.144296 -24553.281778   -289.983751
PG01   1194.162263  14947.859187 -22168.277661    511.139060
PG02  19392.032594 -15417.295467  10356.044009   -641.947082
PG03   9405.760151  21076.483712 -13339.189314    -13.297501
PG04    692.822692  24615.055562   9857.938757   -201.868867
PG05   4566.475220 -15436.294507  20933.746843    -61.034449
PG06  25769.255496  -5378.408190  -3692.399934    117.660400
PG07  17529.179872   8538.259457  18621.198513    277.840490
PG08  -6246.023099  25592.652221   1406.121280    -44.115960
PG09   9575.020944  16908.544123  18020.259344   -361.716813
PG10 -22018.506132  -9218.442493 -11828.399102   -245.904987
PG11  22013.049434 -11889.158811   8888.209156     19.346436
PG12  -6470.051030 -21455.989285 -14612.703158   -126.182068
PG13  13171.314357 -21858.847490   6913.957822    214.446302
PG14  21665.488431   9782.031737 -11906.877104    -38.056370
PG15   2931.066956 -26202.223842    410.777019   -106.554052
PG16  -8801.835691  12239.452339  21576.746564   -423.952153
PG17  14260.543237   3139.286467 -21748.751374    533.519590
PG18 -18162.458957  -7516.933436  17902.485577    295.752306
PG19  16399.119127  -6046.640610 -20210.205377     79.113232
PG20  14299.523994  -8510.704414  20630.306957    518.130141
PG21  -8017.149645  16804.781764 -18028.498660    150.971678
PG22   2765.236842  18886.671124 -18380.156571   -465.082032
PG23 -20600.890973 -16790.381682  -1304.221794     33.104364
PG24   2774.547855 -17168.043850 -20249.647496    266.881437
PG25 -16185.834509 -20466.888219  -5962.003627    240.418372
PG26 -19130.585574   1556.718348  18413.474993    155.232953
PG27 -12177.409478  20651.077457  10824.650713   -219.039278
PG28  19374.146908   4084.734146 -17058.982811    463.041881
PG29  -5068.959621 -20382.881268  16175.656511   -440.451283
PG30  24412.452742   1184.396777  10750.276279   -491.258331
PG31 -26026.864387   6324.949282  -1490.455243   -150.099010
PG32 -15645.947956   1449.915507 -21276.716333    -21.875573
PR01 -12455.146643  -6835.976373 -21190.113830     88.108867
PR02  -6316.799221  14250.479331 -20135.563842    500.034824
PR03   2944.837886  24457.090883  -6468.654764     46.424801
PR04  10254.989706  20802.893251  10621.745811    114.168844
PR05  11906.372046   5649.133200  21836.832462     82.452449
PR07  -3252.438165 -24642.136403   5881.000884    -39.965946
PR08 -10337.417284 -20790.130319 -10550.023933    -62.009497
PR09  15523.036916  -5760.121048 -19411.747312     23.521682
PR11 -18781.628100 -11367.508985 -12967.399095     49.981005
PR12 -24625.025373  -4351.000554   5121.330195    278.347033
PR13 -16230.616159   5053.600029  19006.198146    -63.528151
PR14   2656.196289  11961.532914  22387.663550     71.010969
PR15  19076.396850  11551.153468  12402.661030    100.201401
PR16  24455.742172   3004.308962  -6345.638629    -24.960483
PR17  -8899.753001  18242.925121 -15466.205019    474.838327
PR18   5388.410757   9194.205742 -23153.710580     97.148645
PR19  16461.685393  -3343.840476 -19186.939900   -166.963253
PR20  19476.031791 -16410.730718  -1707.094029    -59.333554
PR21   7878.867136 -17734.143941  16540.530907   -254.509907
PR22  -6015.044937  -8567.935577  23254.428476   -145.124512
PR24 -18982.626582  17026.875290   1032.456407     66.916306
EOF
